ONEWEB-0207             
1 48242U 21031AJ  25165.98600342  .00000106  00000+0  25183-3 0  9996
2 48242  87.9030   2.7414 0001838  81.7104 278.4234 13.14502397200050
ONEWEB-0208             
1 48243U 21031AK  25165.81552838 -.00000162  00000+0 -47048-3 0  9993
2 48243  87.9029   2.7895 0002033  88.9898 271.1465 13.14503189200044
ONEWEB-0200             
1 48244U 21031AL  25165.77906029  .00000171  00000+0  42807-3 0  9990
2 48244  87.9035   2.7896 0001931  87.5134 272.6217 13.14501846199964
ONEWEB-0217             
1 48245U 21031AM  25165.94713780 -.00000064  00000+0 -20583-3 0  9990
2 48245  87.9035   2.7408 0002140  90.3366 269.8009 13.14501403199940
ONEWEB-0211             
1 48767U 21045A   25165.69296723  .00000168  00000+0  40798-3 0  9992
2 48767  87.9049 332.4062 0002037 102.6030 257.5329 13.16081033196101
ONEWEB-0223             
1 48768U 21045B   25165.91242097  .00000195  00000+0  48277-3 0  9993
2 48768  87.9050 332.4019 0002138 107.6433 252.4931 13.15546871196119
ONEWEB-0230             
1 48769U 21045C   25166.18812979 -.00000136  00000+0 -39460-3 0  9997
2 48769  87.9031 332.3898 0001711  94.5446 265.5880 13.15548400197521
ONEWEB-0237             
1 48770U 21045D   25165.72070368  .00000648  00000+0  16879-2 0  9990
2 48770  87.9065 332.4600 0001873 105.1293 255.0044 13.15546435196071
